start=new Date('2022-02-18T00:00:00.000Z').valueOf();
sats=[{"NORAD_CAT_ID":"46345","CLASSIFICATION_TYPE":"U","MEAN_ANOMALY":"295.4493","OBJECT_NAME":"STARLINK-1767","EPOCH":"2022-02-17T20:45:36.867456","PERIAPSIS":"546.240","SEMIMAJOR_AXIS":"6925.356","MEAN_ELEMENT_THEORY":"SGP4","PERIOD":"95.592","EPHEMERIS_TYPE":"0","RCS_SIZE":"LARGE","SITE":"AFETR","MEAN_MOTION_DOT":"0.00002455","ARG_OF_PERICENTER":"64.6643","BSTAR":"0.00018364000000","OBJECT_ID":"2020-062W","LAUNCH_DATE":"2020-09-03","TLE_LINE1":"1 46345U 20062W   22048.86501004  .00002455  00000-0  18364-3 0  9993","MEAN_MOTION":"15.06397415","GP_ID":"196243484","APOAPSIS":"548.203","INCLINATION":"53.0534","RA_OF_ASC_NODE":"184.2875","MEAN_MOTION_DDOT":"0.0000000000000","DECAY_DATE":null,"TLE_LINE2":"2 46345  53.0534 184.2875 0001417  64.6643 295.4493 15.06397415 81119","REV_AT_EPOCH":"8111","OBJECT_TYPE":"PAYLOAD","CENTER_NAME":"EARTH","COUNTRY_CODE":"US","REF_FRAME":"TEME","ECCENTRICITY":"0.00014170","TIME_SYSTEM":"UTC","ELEMENT_SET_NO":"999","FILE":"3305402"},{"CENTER_NAME":"EARTH","COUNTRY_CODE":"US","REF_FRAME":"TEME","ECCENTRICITY":"0.00028990","TIME_SYSTEM":"UTC","FILE":"3304735","ELEMENT_SET_NO":"999","MEAN_MOTION_DDOT":"0.0000000000000","RA_OF_ASC_NODE":"53.6483","DECAY_DATE":null,"TLE_LINE2":"2 46346  53.0551  53.6483 0002899  22.0181 338.0944 15.34265006 82918","REV_AT_EPOCH":"8291","OBJECT_TYPE":"PAYLOAD","MEAN_MOTION_DOT":"-0.00003519","OBJECT_ID":"2020-062X","ARG_OF_PERICENTER":"22.0181","BSTAR":"-0.00009341900000","LAUNCH_DATE":"2020-09-03","MEAN_MOTION":"15.34265006","TLE_LINE1":"1 46346U 20062X   22048.35557066 -.00003519  00000-0 -93419-4 0  9996","INCLINATION":"53.0551","APOAPSIS":"465.090","GP_ID":"196206626","CLASSIFICATION_TYPE":"U","MEAN_ANOMALY":"338.0944","NORAD_CAT_ID":"46346","EPOCH":"2022-02-17T08:32:01.305024","PERIAPSIS":"461.123","OBJECT_NAME":"STARLINK-1546","MEAN_ELEMENT_THEORY":"SGP4","SEMIMAJOR_AXIS":"6841.242","SITE":"AFETR","PERIOD":"93.856","EPHEMERIS_TYPE":"0","RCS_SIZE":"LARGE"},{"FILE":"3305402","ELEMENT_SET_NO":"999","TIME_SYSTEM":"UTC","REF_FRAME":"TEME","ECCENTRICITY":"0.00015450","CENTER_NAME":"EARTH","COUNTRY_CODE":"US","OBJECT_TYPE":"PAYLOAD","TLE_LINE2":"2 46347  53.0537 139.7730 0001545  56.4312 303.6824 15.06406880 81716","DECAY_DATE":null,"REV_AT_EPOCH":"8171","MEAN_MOTION_DDOT":"0.0000000000000","RA_OF_ASC_NODE":"139.7730","INCLINATION":"53.0537","APOAPSIS":"548.262","GP_ID":"196243985","LAUNCH_DATE":"2020-09-03","TLE_LINE1":"1 46347U 20062Y   22048.75673655  .00005225  00000-0  36934-3 0  9996","MEAN_MOTION":"15.06406880","BSTAR":"0.00036934000000","ARG_OF_PERICENTER":"56.4312","OBJECT_ID":"2020-062Y","MEAN_MOTION_DOT":"0.00005225","SITE":"AFETR","PERIOD":"95.592","EPHEMERIS_TYPE":"0","RCS_SIZE":"LARGE","MEAN_ELEMENT_THEORY":"SGP4","SEMIMAJOR_AXIS":"6925.327","EPOCH":"2022-02-17T18:09:42.037920","PERIAPSIS":"546.123","OBJECT_NAME":"STARLINK-1547","CLASSIFICATION_TYPE":"U","MEAN_ANOMALY":"303.6824","NORAD_CAT_ID":"46347"},{"OBJECT_ID":"2020-062Z","ARG_OF_PERICENTER":"63.9448","BSTAR":"0.00029083000000","MEAN_MOTION_DOT":"0.00004054","GP_ID":"196243234","APOAPSIS":"548.214","INCLINATION":"53.0536","LAUNCH_DATE":"2020-09-03","TLE_LINE1":"1 46348U 20062Z   22048.80050254  .00004054  00000-0  29083-3 0  9993","MEAN_MOTION":"15.06407861","OBJECT_NAME":"STARLINK-1553","PERIAPSIS":"546.165","EPOCH":"2022-02-17T19:12:43.419456","NORAD_CAT_ID":"46348","CLASSIFICATION_TYPE":"U","MEAN_ANOMALY":"296.1693","PERIOD":"95.592","RCS_SIZE":"LARGE","EPHEMERIS_TYPE":"0","SITE":"AFETR","SEMIMAJOR_AXIS":"6925.324","MEAN_ELEMENT_THEORY":"SGP4","REF_FRAME":"TEME","ECCENTRICITY":"0.00014790","CENTER_NAME":"EARTH","COUNTRY_CODE":"US","FILE":"3305402","ELEMENT_SET_NO":"999","TIME_SYSTEM":"UTC","RA_OF_ASC_NODE":"164.5771","MEAN_MOTION_DDOT":"0.0000000000000","OBJECT_TYPE":"PAYLOAD","DECAY_DATE":null,"TLE_LINE2":"2 46348  53.0536 164.5771 0001479  63.9448 296.1693 15.06407861 81389","REV_AT_EPOCH":"8138"},{"RA_OF_ASC_NODE":"140.7917","MEAN_MOTION_DDOT":"0.0000000000000","TLE_LINE2":"2 46349  53.0581 140.7917 0001527  60.8000 299.3142 15.06399481 81698","REV_AT_EPOCH":"8169","DECAY_DATE":null,"OBJECT_TYPE":"PAYLOAD","CENTER_NAME":"EARTH","COUNTRY_CODE":"US","REF_FRAME":"TEME","ECCENTRICITY":"0.00015270","TIME_SYSTEM":"UTC","ELEMENT_SET_NO":"999","FILE":"3304735","NORAD_CAT_ID":"46349","CLASSIFICATION_TYPE":"U","MEAN_ANOMALY":"299.3142","OBJECT_NAME":"STARLINK-1575","EPOCH":"2022-02-17T12:45:55.434240","PERIAPSIS":"546.158","SEMIMAJOR_AXIS":"6925.350","MEAN_ELEMENT_THEORY":"SGP4","PERIOD":"95.592","EPHEMERIS_TYPE":"0","RCS_SIZE":"LARGE","SITE":"AFETR","MEAN_MOTION_DOT":"0.00001301","BSTAR":"0.00010619000000","OBJECT_ID":"2020-062AA","ARG_OF_PERICENTER":"60.8000","LAUNCH_DATE":"2020-09-03","TLE_LINE1":"1 46349U 20062AA  22048.53189160  .00001301  00000-0  10619-3 0  9990","MEAN_MOTION":"15.06399481","GP_ID":"196206099","APOAPSIS":"548.273","INCLINATION":"53.0581"},{"RA_OF_ASC_NODE":"185.0623","MEAN_MOTION_DDOT":"0.0000000000000","TLE_LINE2":"2 46350  53.0555 185.0623 0001377  58.4355 301.6768 15.06400602 81099","REV_AT_EPOCH":"8109","DECAY_DATE":null,"OBJECT_TYPE":"PAYLOAD","COUNTRY_CODE":"US","CENTER_NAME":"EARTH","ECCENTRICITY":"0.00013770","REF_FRAME":"TEME","TIME_SYSTEM":"UTC","ELEMENT_SET_NO":"999","FILE":"3305402","NORAD_CAT_ID":"46350","MEAN_ANOMALY":"301.6768","CLASSIFICATION_TYPE":"U","OBJECT_NAME":"STARLINK-1617","PERIAPSIS":"546.258","EPOCH":"2022-02-17T16:41:27.515904","SEMIMAJOR_AXIS":"6925.347","MEAN_ELEMENT_THEORY":"SGP4","RCS_SIZE":"LARGE","EPHEMERIS_TYPE":"0","PERIOD":"95.592","SITE":"AFETR","MEAN_MOTION_DOT":"0.00002436","BSTAR":"0.00018234000000","OBJECT_ID":"2020-062AB","ARG_OF_PERICENTER":"58.4355","TLE_LINE1":"1 46350U 20062AB  22048.69545736  .00002436  00000-0  18234-3 0  9995","MEAN_MOTION":"15.06400602","LAUNCH_DATE":"2020-09-03","GP_ID":"196244236","INCLINATION":"53.0555","APOAPSIS":"548.165"},{"OBJECT_TYPE":"PAYLOAD","DECAY_DATE":null,"TLE_LINE2":"2 46351  53.0534 165.0265 0001433  63.0842 297.0294 15.06401789 81373","REV_AT_EPOCH":"8137","RA_OF_ASC_NODE":"165.0265","MEAN_MOTION_DDOT":"0.0000000000000","FILE":"3305402","ELEMENT_SET_NO":"999","TIME_SYSTEM":"UTC","ECCENTRICITY":"0.00014330","REF_FRAME":"TEME","COUNTRY_CODE":"US","CENTER_NAME":"EARTH","RCS_SIZE":"LARGE","EPHEMERIS_TYPE":"0","PERIOD":"95.592","SITE":"AFETR","SEMIMAJOR_AXIS":"6925.343","MEAN_ELEMENT_THEORY":"SGP4","OBJECT_NAME":"STARLINK-1646","PERIAPSIS":"546.216","EPOCH":"2022-02-17T16:49:25.082400","NORAD_CAT_ID":"46351","MEAN_ANOMALY":"297.0294","CLASSIFICATION_TYPE":"U","GP_ID":"196244486","APOAPSIS":"548.200","INCLINATION":"53.0534","MEAN_MOTION":"15.06401789","TLE_LINE1":"1 46351U 20062AC  22048.70098475  .00001473  00000-0  11776-3 0  9995","LAUNCH_DATE":"2020-09-03","BSTAR":"0.00011776000000","OBJECT_ID":"2020-062AC","ARG_OF_PERICENTER":"63.0842","MEAN_MOTION_DOT":"0.00001473"},{"REF_FRAME":"TEME","ECCENTRICITY":"0.00016420","CENTER_NAME":"EARTH","COUNTRY_CODE":"US","FILE":"3305402","ELEMENT_SET_NO":"999","TIME_SYSTEM":"UTC","MEAN_MOTION_DDOT":"0.0000000000000","RA_OF_ASC_NODE":"164.5154","OBJECT_TYPE":"PAYLOAD","DECAY_DATE":null,"TLE_LINE2":"2 46352  53.0533 164.5154 0001642  77.8747 282.2425 15.06402658 81393","REV_AT_EPOCH":"8139","BSTAR":"0.00014410000000","OBJECT_ID":"2020-062AD","ARG_OF_PERICENTER":"77.8747","MEAN_MOTION_DOT":"0.00001866","INCLINATION":"53.0533","APOAPSIS":"548.343","GP_ID":"196242734","LAUNCH_DATE":"2020-09-03","MEAN_MOTION":"15.06402658","TLE_LINE1":"1 46352U 20062AD  22048.81525069  .00001866  00000-0  14410-3 0  9996","PERIAPSIS":"546.068","EPOCH":"2022-02-17T19:33:57.659616","OBJECT_NAME":"STARLINK-1653","CLASSIFICATION_TYPE":"U","MEAN_ANOMALY":"282.2425","NORAD_CAT_ID":"46352","SITE":"AFETR","PERIOD":"95.592","EPHEMERIS_TYPE":"0","RCS_SIZE":"LARGE","MEAN_ELEMENT_THEORY":"SGP4","SEMIMAJOR_AXIS":"6925.340"},{"SEMIMAJOR_AXIS":"6925.368","MEAN_ELEMENT_THEORY":"SGP4","RCS_SIZE":"LARGE","EPHEMERIS_TYPE":"0","PERIOD":"95.593","SITE":"AFETR","NORAD_CAT_ID":"46353","MEAN_ANOMALY":"288.9260","CLASSIFICATION_TYPE":"U","OBJECT_NAME":"STARLINK-1656","EPOCH":"2022-02-17T21:06:51.011712","PERIAPSIS":"546.248","MEAN_MOTION":"15.06393789","TLE_LINE1":"1 46353U 20062AE  22048.87975708  .00001739  00000-0  13560-3 0  9996","LAUNCH_DATE":"2020-09-03","GP_ID":"196243485","INCLINATION":"53.0547","APOAPSIS":"548.217","MEAN_MOTION_DOT":"0.00001739","ARG_OF_PERICENTER":"71.1883","BSTAR":"0.00013560000000","OBJECT_ID":"2020-062AE","TLE_LINE2":"2 46353  53.0547 184.2381 0001421  71.1883 288.9260 15.06393789 81117","DECAY_DATE":null,"REV_AT_EPOCH":"8111","OBJECT_TYPE":"PAYLOAD","RA_OF_ASC_NODE":"184.2381","MEAN_MOTION_DDOT":"0.0000000000000","TIME_SYSTEM":"UTC","ELEMENT_SET_NO":"999","FILE":"3305402","COUNTRY_CODE":"US","CENTER_NAME":"EARTH","ECCENTRICITY":"0.00014210","REF_FRAME":"TEME"},{"MEAN_MOTION_DDOT":"0.0000000000000","RA_OF_ASC_NODE":"184.2720","OBJECT_TYPE":"PAYLOAD","TLE_LINE2":"2 46354  53.0539 184.2720 0001480  69.4644 290.6504 15.06400160 81119","DECAY_DATE":null,"REV_AT_EPOCH":"8111","ECCENTRICITY":"0.00014800","REF_FRAME":"TEME","COUNTRY_CODE":"US","CENTER_NAME":"EARTH","ELEMENT_SET_NO":"999","FILE":"3305402","TIME_SYSTEM":"UTC","PERIAPSIS":"546.188","EPOCH":"2022-02-17T20:50:55.333536","OBJECT_NAME":"STARLINK-1657","MEAN_ANOMALY":"290.6504","CLASSIFICATION_TYPE":"U","NORAD_CAT_ID":"46354","SITE":"AFETR","EPHEMERIS_TYPE":"0","RCS_SIZE":"LARGE","PERIOD":"95.592","SEMIMAJOR_AXIS":"6925.348","MEAN_ELEMENT_THEORY":"SGP4","OBJECT_ID":"2020-062AF","ARG_OF_PERICENTER":"69.4644","BSTAR":"0.00002610400000","MEAN_MOTION_DOT":"0.00000107","INCLINATION":"53.0539","APOAPSIS":"548.238","GP_ID":"196243736","TLE_LINE1":"1 46354U 20062AF  22048.86869599  .00000107  00000-0  26104-4 0  9993","MEAN_MOTION":"15.06400160","LAUNCH_DATE":"2020-09-03"}];
